{"type": "FeatureCollection", "features": [ {"type": "Feature", "properties": {"norad_id": 32289, "name": "YAOGAN-3", "group": "resource", "lat": -51.552939958021454, "lon": -179.10272270618455, "alt_km": 606.3292019902547, "timestamp": "2025-12-10T05:46:13.453725+00:00", "meta": {"OBJECT_NAME": "YAOGAN-3", "OBJECT_ID": "2007-055A", "EPOCH": "2025-12-09T20:40:19.149600", "MEAN_MOTION": 14.89832088, "ECCENTRICITY": 0.0001375, "INCLINATION": 97.8367, "RA_OF_ASC_NODE": 10.5117, "ARG_OF_PERICENTER": 72.4327, "MEAN_ANOMALY": 287.7041, "EPHEMERIS_TYPE": 0, "CLASSIFICATION_TYPE": "U", "NORAD_CAT_ID": 32289, "ELEMENT_SET_NO": 999, "REV_AT_EPOCH": 97766, "BSTAR": 0.00014269, "MEAN_MOTION_DOT": 1.315e-05, "MEAN_MOTION_DDOT": 0}, "tle": {"line1": "1 32289U 07055A   25343.86133275  .00001315  00000+0  14269-3 0  9997", "line2": "2 32289  97.8367  10.5117 0001375  72.4327 287.7041 14.89832088977667"}}, "geometry": {"type": "Point", "coordinates": [-179.10272270618455, -51.552939958021454]}}, {"type": "Feature", "properties": {"norad_id": 32376, "name": "COSMO-SKYMED 2", "group": "resource", "lat": -39.9231203204073, "lon": -21.05478305361243, "alt_km": 629.8176811348558, "timestamp": "2025-12-10T05:46:13.453746+00:00", "meta": {"OBJECT_NAME": "COSMO-SKYMED 2", "OBJECT_ID": "2007-059A", "EPOCH": "2025-12-09T19:03:29.453760", "MEAN_MOTION": 14.82161028, "ECCENTRICITY": 0.0001536, "INCLINATION": 97.8812, "RA_OF_ASC_NODE": 165.1622, "ARG_OF_PERICENTER": 85.6208, "MEAN_ANOMALY": 274.5181, "EPHEMERIS_TYPE": 0, "CLASSIFICATION_TYPE": "U", "NORAD_CAT_ID": 32376, "ELEMENT_SET_NO": 999, "REV_AT_EPOCH": 97394, "BSTAR": 0.00013537, "MEAN_MOTION_DOT": 1.026e-05, "MEAN_MOTION_DDOT": 0}, "tle": {"line1": "1 32376U 07059A   25343.79409090  .00001026  00000+0  13537-3 0  9997", "line2": "2 32376  97.8812 165.1622 0001536  85.6208 274.5181 14.82161028973948"}}, "geometry": {"type": "Point", "coordinates": [-21.05478305361243, -39.9231203204073]}}, {"type": "Feature", "properties": {"norad_id": 32382, "name": "RADARSAT-2", "group": "resource", "lat": -78.36896508722896, "lon": 36.04280096402306, "alt_km": 799.9274019844042, "timestamp": "2025-12-10T05:46:13.453774+00:00", "meta": {"OBJECT_NAME": "RADARSAT-2", "OBJECT_ID": "2007-061A", "EPOCH": "2025-12-09T23:26:12.483168", "MEAN_MOTION": 14.29981197, "ECCENTRICITY": 0.0001136, "INCLINATION": 98.5796, "RA_OF_ASC_NODE": 348.6068, "ARG_OF_PERICENTER": 94.4252, "MEAN_ANOMALY": 265.706, "EPHEMERIS_TYPE": 0, "CLASSIFICATION_TYPE": "U", "NORAD_CAT_ID": 32382, "ELEMENT_SET_NO": 999, "REV_AT_EPOCH": 93891, "BSTAR": 6.0045e-05, "MEAN_MOTION_DOT": 1.11e-06, "MEAN_MOTION_DDOT": 0}, "tle": {"line1": "1 32382U 07061A   25343.97653337  .00000111  00000+0  60045-4 0  9993", "line2": "2 32382  98.5796 348.6068 0001136  94.4252 265.7060 14.29981197938913"}}, "geometry": {"type": "Point", "coordinates": [36.04280096402306, -78.36896508722896]}}, {"type": "Feature", "properties": {"norad_id": 32783, "name": "CARTOSAT-2A", "group": "resource", "lat": 28.632439414936325, "lon": 29.85378489782796, "alt_km": 623.2606399808437, "timestamp": "2025-12-10T05:46:13.453797+00:00", "meta": {"OBJECT_NAME": "CARTOSAT-2A", "OBJECT_ID": "2008-021A", "EPOCH": "2025-12-09T19:53:51.467424", "MEAN_MOTION": 14.78927255, "ECCENTRICITY": 0.0012158, "INCLINATION": 97.7928, "RA_OF_ASC_NODE": 33.7431, "ARG_OF_PERICENTER": 13.6704, "MEAN_ANOMALY": 346.4835, "EPHEMERIS_TYPE": 0, "CLASSIFICATION_TYPE": "U", "NORAD_CAT_ID": 32783, "ELEMENT_SET_NO": 999, "REV_AT_EPOCH": 95081, "BSTAR": 0.00014722, "MEAN_MOTION_DOT": 1.036e-05, "MEAN_MOTION_DDOT": 0}, "tle": {"line1": "1 32783U 08021A   25343.82906791  .00001036  00000+0  14722-3 0  9991", "line2": "2 32783  97.7928  33.7431 0012158  13.6704 346.4835 14.78927255950812"}}, "geometry": {"type": "Point", "coordinates": [29.85378489782796, 28.632439414936325]}}, {"type": "Feature", "properties": {"norad_id": 33320, "name": "HUANJING 1A (HJ-1A)", "group": "resource", "lat": -34.164170105386326, "lon": 147.40634409571746, "alt_km": 639.0098320320276, "timestamp": "2025-12-10T05:46:13.453816+00:00", "meta": {"OBJECT_NAME": "HUANJING 1A (HJ-1A)", "OBJECT_ID": "2008-041A", "EPOCH": "2025-12-09T20:42:46.854720", "MEAN_MOTION": 14.8338019, "ECCENTRICITY": 0.0020338, "INCLINATION": 97.6543, "RA_OF_ASC_NODE": 332.2815, "ARG_OF_PERICENTER": 43.5549, "MEAN_ANOMALY": 316.7267, "EPHEMERIS_TYPE": 0, "CLASSIFICATION_TYPE": "U", "NORAD_CAT_ID": 33320, "ELEMENT_SET_NO": 999, "REV_AT_EPOCH": 93033, "BSTAR": 0.00036084, "MEAN_MOTION_DOT": 2.919e-05, "MEAN_MOTION_DDOT": 0}, "tle": {"line1": "1 33320U 08041A   25343.86304230  .00002919  00000+0  36084-3 0  9991", "line2": "2 33320  97.6543 332.2815 0020338  43.5549 316.7267 14.83380190930334"}}, "geometry": {"type": "Point", "coordinates": [147.40634409571746, -34.164170105386326]}}, {"type": "Feature", "properties": {"norad_id": 33321, "name": "HUANJING 1B (HJ-1B)", "group": "resource", "lat": 77.89753110040071, "lon": -62.408774683728446, "alt_km": 586.4248269651807, "timestamp": "2025-12-10T05:46:13.453828+00:00", "meta": {"OBJECT_NAME": "HUANJING 1B (HJ-1B)", "OBJECT_ID": "2008-041B", "EPOCH": "2025-12-09T21:18:44.877888", "MEAN_MOTION": 14.82810129, "ECCENTRICITY": 0.0038267, "INCLINATION": 97.64, "RA_OF_ASC_NODE": 336.0096, "ARG_OF_PERICENTER": 84.6752, "MEAN_ANOMALY": 275.8827, "EPHEMERIS_TYPE": 0, "CLASSIFICATION_TYPE": "U", "NORAD_CAT_ID": 33321, "ELEMENT_SET_NO": 999, "REV_AT_EPOCH": 93035, "BSTAR": 0.00025726, "MEAN_MOTION_DOT": 2.056e-05, "MEAN_MOTION_DDOT": 0}, "tle": {"line1": "1 33321U 08041B   25343.88801942  .00002056  00000+0  25726-3 0  9999", "line2": "2 33321  97.6400 336.0096 0038267  84.6752 275.8827 14.82810129930350"}}, "geometry": {"type": "Point", "coordinates": [-62.408774683728446, 77.89753110040071]}}, {"type": "Feature", "properties": {"norad_id": 33331, "name": "GEOEYE 1", "group": "resource", "lat": -47.91892722746137, "lon": -133.55141584662027, "alt_km": 683.5450312788544, "timestamp": "2025-12-10T05:46:13.453843+00:00", "meta": {"OBJECT_NAME": "GEOEYE 1", "OBJECT_ID": "2008-042A", "EPOCH": "2025-12-09T18:53:37.262112", "MEAN_MOTION": 14.64807012, "ECCENTRICITY": 0.000276, "INCLINATION": 98.1255, "RA_OF_ASC_NODE": 55.1048, "ARG_OF_PERICENTER": 289.7566, "MEAN_ANOMALY": 70.3339, "EPHEMERIS_TYPE": 0, "CLASSIFICATION_TYPE": "U", "NORAD_CAT_ID": 33331, "ELEMENT_SET_NO": 999, "REV_AT_EPOCH": 92242, "BSTAR": 0.00022152, "MEAN_MOTION_DOT": 1.134e-05, "MEAN_MOTION_DDOT": 0}, "tle": {"line1": "1 33331U 08042A   25343.78723683  .00001134  00000+0  22152-3 0  9991", "line2": "2 33331  98.1255  55.1048 0002760 289.7566  70.3339 14.64807012922423"}}, "geometry": {"type": "Point", "coordinates": [-133.55141584662027, -47.91892722746137]}}, {"type": "Feature", "properties": {"norad_id": 33396, "name": "THEOS", "group": "resource", "lat": 52.11571613792941, "lon": -126.39883586689132, "alt_km": 819.4732198252732, "timestamp": "2025-12-10T05:46:13.453865+00:00", "meta": {"OBJECT_NAME": "THEOS", "OBJECT_ID": "2008-049A", "EPOCH": "2025-12-09T20:43:10.944768", "MEAN_MOTION": 14.20095727, "ECCENTRICITY": 0.0001104, "INCLINATION": 98.5866, "RA_OF_ASC_NODE": 42.0374, "ARG_OF_PERICENTER": 95.1872, "MEAN_ANOMALY": 264.943, "EPHEMERIS_TYPE": 0, "CLASSIFICATION_TYPE": "U", "NORAD_CAT_ID": 33396, "ELEMENT_SET_NO": 999, "REV_AT_EPOCH": 89109, "BSTAR": 0.00012728, "MEAN_MOTION_DOT": 2.29e-06, "MEAN_MOTION_DDOT": 0}, "tle": {"line1": "1 33396U 08049A   25343.86332112  .00000229  00000+0  12728-3 0  9993", "line2": "2 33396  98.5866  42.0374 0001104  95.1872 264.9430 14.20095727891098"}}, "geometry": {"type": "Point", "coordinates": [-126.39883586689132, 52.11571613792941]}}, {"type": "Feature", "properties": {"norad_id": 33412, "name": "COSMO-SKYMED 3", "group": "resource", "lat": 11.246390379933024, "lon": 16.161110457779188, "alt_km": 541.3449648602837, "timestamp": "2025-12-10T05:46:13.453883+00:00", "meta": {"OBJECT_NAME": "COSMO-SKYMED 3", "OBJECT_ID": "2008-054A", "EPOCH": "2025-12-09T21:02:49.718112", "MEAN_MOTION": 15.05312116, "ECCENTRICITY": 0.0015843, "INCLINATION": 97.8458, "RA_OF_ASC_NODE": 194.2205, "ARG_OF_PERICENTER": 183.6394, "MEAN_ANOMALY": 176.4719, "EPHEMERIS_TYPE": 0, "CLASSIFICATION_TYPE": "U", "NORAD_CAT_ID": 33412, "ELEMENT_SET_NO": 999, "REV_AT_EPOCH": 92844, "BSTAR": 0.00066647, "MEAN_MOTION_DOT": 9.504e-05, "MEAN_MOTION_DDOT": 0}, "tle": {"line1": "1 33412U 08054A   25343.87696433  .00009504  00000+0  66647-3 0  9992", "line2": "2 33412  97.8458 194.2205 0015843 183.6394 176.4719 15.05312116928441"}}, "geometry": {"type": "Point", "coordinates": [16.161110457779188, 11.246390379933024]}}, {"type": "Feature", "properties": {"norad_id": 33446, "name": "YAOGAN-4", "group": "resource", "lat": -6.55037397034181, "lon": -84.72016079593065, "alt_km": 615.7356504530153, "timestamp": "2025-12-10T05:46:13.453902+00:00", "meta": {"OBJECT_NAME": "YAOGAN-4", "OBJECT_ID": "2008-061A", "EPOCH": "2025-12-09T18:27:44.192736", "MEAN_MOTION": 14.82669066, "ECCENTRICITY": 0.0013834, "INCLINATION": 97.918, "RA_OF_ASC_NODE": 273.8977, "ARG_OF_PERICENTER": 333.4194, "MEAN_ANOMALY": 26.6309, "EPHEMERIS_TYPE": 0, "CLASSIFICATION_TYPE": "U", "NORAD_CAT_ID": 33446, "ELEMENT_SET_NO": 999, "REV_AT_EPOCH": 91759, "BSTAR": 0.000361, "MEAN_MOTION_DOT": 2.862e-05, "MEAN_MOTION_DDOT": 0}, "tle": {"line1": "1 33446U 08061A   25343.76926149  .00002862  00000+0  36100-3 0  9996", "line2": "2 33446  97.9180 273.8977 0013834 333.4194  26.6309 14.82669066917590"}}, "geometry": {"type": "Point", "coordinates": [-84.72016079593065, -6.55037397034181]}}]}